STARLINK-32405          
1 61636U 24191R   26068.24252237 -.00001069  00000+0 -29301-4 0  9994
2 61636  43.0024 160.8737 0003398 286.9855  73.0624 15.27567531 77429
FLOCK 4G-27             
1 62641U 25009AJ  26068.75406453  .00012587  00000+0  47455-3 0  9991
2 62641  97.3976 150.8631 0000756 322.4974  37.6212 15.27199247 63710
